IRIDIUM 166             
1 43570U 18061B   25335.71058047  .00000245  00000+0  80394-4 0  9993
2 43570  86.3967 139.3123 0002147  94.2274 265.9167 14.34218017385096
IRIDIUM 158             
1 43571U 18061C   25335.81840500 -.00000053  00000+0 -25846-4 0  9998
2 43571  86.3973 139.2774 0001651  91.6034 268.5351 14.34217469385071
IRIDIUM 165             
1 43572U 18061D   25335.84377853  .00000048  00000+0  10230-4 0  9991
2 43572  86.3968 139.3092 0002165  93.4545 266.6898 14.34217891385106
IRIDIUM 155             
1 43573U 18061E   25335.73595373  .00000090  00000+0  25095-4 0  9991
2 43573  86.3964 139.2333 0001909  97.5474 262.5939 14.34218228385051
IRIDIUM 154             
1 43574U 18061F   25335.71693022  .00000068  00000+0  17334-4 0  9992
2 43574  86.3967 139.3649 0002043  90.2622 269.8808 14.34212469385103
IRIDIUM 163             
1 43575U 18061G   25335.83744125  .00000105  00000+0  30492-4 0  9999
2 43575  86.3966 139.2362 0001878  88.7230 271.4181 14.34216858385093
IRIDIUM 156             
1 43576U 18061H   25335.53298987  .00000007  00000+0 -44818-5 0  9997
2 43576  86.3970 139.3704 0001855 100.1078 260.0327 14.34217715385048
IRIDIUM 164             
1 43577U 18061J   25335.72328456  .00000096  00000+0  27302-4 0  9999
2 43577  86.3966 139.3280 0002187  93.2176 266.9270 14.34217474385115
